IRIDIUM 171             
1 43929U 19002H   24173.84781229  .00000092  00000+0  25741-4 0  9990
2 43929  86.3971 296.9197 0002368  91.6635 268.4832 14.34217520284999
IRIDIUM 170             
1 43930U 19002J   24173.40600329  .00000141  00000+0  18425-4 0  9991
2 43930  86.6092 296.9230 0002338  91.6712 268.4773 14.72248777292475
IRIDIUM 167             
1 43931U 19002K   24173.84146958  .00000004  00000+0 -57773-5 0  9992
2 43931  86.3961 296.7122 0002243  94.4671 265.6781 14.34217513284994
IRIDIUM 181             
1 56726U 23068S   24174.02849970  .00000449  00000+0  12699-3 0  9998
2 56726  86.8636 350.6030 0002396  94.7109 265.4366 14.43565969 57839
IRIDIUM 177             
1 56727U 23068T   24173.88973402  .00001008  00000+0  12912-3 0  9990
2 56727  86.1970 313.1266 0002660  87.7246 272.4280 14.80230237 59076
IRIDIUM 174             
1 56728U 23068U   24173.88430146  .00001170  00000+0  15045-3 0  9994
2 56728  86.1976 313.2333 0002216  95.2970 264.8504 14.80230616 59079
IRIDIUM 178             
1 56729U 23068V   24173.94649745  .00001677  00000+0  21712-3 0  9999
2 56729  86.5779 330.8952 0001869  91.9213 268.2222 14.80254337 59085
IRIDIUM 179             
1 56730U 23068W   24173.94109492  .00001740  00000+0  22552-3 0  9995
2 56730  86.6790 335.0919 0002044  94.4231 265.7224 14.80235013 59089
